NORAD_CAT_ID,OBJECT_NAME,OBJECT_TYPE,EPOCH,MEAN_MOTION,ECCENTRICITY,INCLINATION,RA_OF_ASC_NODE,ARG_OF_PERICENTER,MEAN_ANOMALY,BSTAR,MEAN_MOTION_DOT,MEAN_MOTION_DDOT,TLE_LINE0,TLE_LINE1,TLE_LINE2,SEMIMAJOR_AXIS,PERIOD,APOGEE,PERIGEE,DECAYED
53140.0,STARLINK-4170,PAYLOAD,2023-08-11 23:43:15,15.0884198,0.0001025,53.2164,77.0933,84.7141,275.3968,0.0001006,1.314e-05,0.0,0 STARLINK-4170,1 53140U 22083J   23223.98837162  .00001314  00000-0  10060-3 0  9993,2 53140  53.2164  77.0933 0001025  84.7141 275.3968 15.08841980 59837,6917.874,95.437,540.448,539.03,0.0
53140.0,STARLINK-4170,PAYLOAD,2023-08-12 23:34:01,15.08853187,0.0001017,53.2157,72.6327,79.7961,280.3146,0.00021109,3.074e-05,0.0,0 STARLINK-4170,1 53140U 22083J   23224.98196545  .00003074  00000-0  21109-3 0  9998,2 53140  53.2157  72.6327 0001017  79.7961 280.3146 15.08853187 59984,6917.84,95.437,540.409,539.002,0.0
53140.0,STARLINK-4170,PAYLOAD,2023-08-13 18:38:40,15.08835629,0.0001097,53.2165,69.0629,83.6973,276.4144,7.9361e-05,9.75e-06,0.0,0 STARLINK-4170,1 53140U 22083J   23225.77685562  .00000975  00000-0  79361-4 0  9999,2 53140  53.2165  69.0629 0001097  83.6973 276.4144 15.08835629 60104,6917.894,95.438,540.518,539.0,0.0
53140.0,STARLINK-4170,PAYLOAD,2023-08-14 20:04:49,15.0884578,0.0001005,53.2165,64.3063,86.946,273.1647,7.2217e-05,8.62e-06,0.0,0 STARLINK-4170,1 53140U 22083J   23226.83668875  .00000862  00000-0  72217-4 0  9993,2 53140  53.2165  64.3063 0001005  86.9460 273.1647 15.08845780 60268,6917.863,95.437,540.423,539.032,0.0
53140.0,STARLINK-4170,PAYLOAD,2023-08-15 08:47:55,15.08836841,0.0001138,53.2164,61.928,84.6695,275.4427,0.00010017,1.307e-05,0.0,0 STARLINK-4170,1 53140U 22083J   23227.36661437  .00001307  00000-0  10017-3 0  9993,2 53140  53.2164  61.9280 0001138  84.6695 275.4427 15.08836841 60341,6917.89,95.438,540.542,538.968,0.0
53140.0,STARLINK-4170,PAYLOAD,2023-08-15 23:06:23,15.08845683,0.0001048,53.2165,59.2515,89.6666,270.4446,0.00014447,2.013e-05,0.0,0 STARLINK-4170,1 53140U 22083J   23227.96276817  .00002013  00000-0  14447-3 0  9999,2 53140  53.2165  59.2515 0001048  89.6666 270.4446 15.08845683 60436,6917.863,95.437,540.453,539.003,0.0
53140.0,STARLINK-4170,PAYLOAD,2023-08-16 05:27:57,15.08821862,0.0001607,53.2171,58.0608,88.3498,271.7679,-5.4558e-05,-1.156e-05,0.0,0 STARLINK-4170,1 53140U 22083J   23228.22775161 -.00001156  00000-0 -54558-4 0  9992,2 53140  53.2171  58.0608 0001607  88.3498 271.7679 15.08821862 60472,6917.936,95.439,540.913,538.689,0.0
53140.0,STARLINK-4170,PAYLOAD,2023-08-16 15:00:17,15.08813551,0.0001732,53.2131,56.2808,88.4971,271.6219,-0.00019425,-3.376e-05,0.0,0 STARLINK-4170,1 53140U 22083J   23228.62520607 -.00003376  00000-0 -19425-3 0  9998,2 53140  53.2131  56.2808 0001732  88.4971 271.6219 15.08813551 60538,6917.961,95.439,541.024,538.628,0.0
53140.0,STARLINK-4170,PAYLOAD,2023-08-17 14:51:03,15.08845026,6.67e-05,53.2164,51.8177,85.0662,275.0406,0.00032824,4.941e-05,0.0,0 STARLINK-4170,1 53140U 22083J   23229.61878601  .00004941  00000-0  32824-3 0  9993,2 53140  53.2164  51.8177 0000667  85.0662 275.0406 15.08845026 60684,6917.865,95.437,540.191,539.269,0.0
53140.0,STARLINK-4170,PAYLOAD,2023-08-18 14:41:50,15.08843929,0.0001238,53.2155,47.3568,78.809,281.3041,0.00048159,7.386e-05,0.0,0 STARLINK-4170,1 53140U 22083J   23230.61238952  .00007386  00000-0  48159-3 0  9998,2 53140  53.2155  47.3568 0001238  78.8090 281.3041 15.08843929 60830,6917.868,95.437,540.59,538.877,0.0
53140.0,STARLINK-4170,PAYLOAD,2023-08-18 21:03:22,15.08854959,0.0001235,53.2156,46.167,78.2948,281.8182,0.00046502,7.124e-05,0.0,0 STARLINK-4170,1 53140U 22083J   23230.87734217  .00007124  00000-0  46502-3 0  9991,2 53140  53.2156  46.1670 0001235  78.2948 281.8182 15.08854959 60875,6917.835,95.437,540.554,538.845,0.0
53140.0,STARLINK-4170,PAYLOAD,2023-08-19 14:32:37,15.08845993,0.0001993,53.2146,42.894,82.8347,277.2872,-9.3973e-05,-1.784e-05,0.0,0 STARLINK-4170,1 53140U 22083J   23231.60598510 -.00001784  00000-0 -93973-4 0  9990,2 53140  53.2146  42.8940 0001993  82.8347 277.2872 15.08845993 60987,6917.862,95.437,541.106,538.348,0.0
53140.0,STARLINK-4170,PAYLOAD,2023-08-20 17:34:09,15.08853411,0.0001097,53.2171,37.841,84.5071,275.6047,7.7251e-05,9.42e-06,0.0,0 STARLINK-4170,1 53140U 22083J   23232.73205498  .00000942  00000-0  77251-4 0  9999,2 53140  53.2171  37.8410 0001097  84.5071 275.6047 15.08853411 61159,6917.839,95.437,540.463,538.946,0.0
53140.0,STARLINK-4170,PAYLOAD,2023-08-21 11:03:24,15.08830784,0.0001201,53.2163,34.5684,107.1187,252.9937,0.00020799,3.023e-05,0.0,0 STARLINK-4170,1 53140U 22083J   23233.46070545  .00003023  00000-0  20799-3 0  9990,2 53140  53.2163  34.5684 0001201 107.1187 252.9937 15.08830784 61260,6917.909,95.438,540.604,538.943,0.0
53140.0,STARLINK-4170,PAYLOAD,2023-08-21 17:24:56,15.08842096,0.0001189,53.2171,33.3809,90.7569,269.3559,7.0775e-05,8.39e-06,0.0,0 STARLINK-4170,1 53140U 22083J   23233.72565939  .00000839  00000-0  70775-4 0  9997,2 53140  53.2171  33.3809 0001189  90.7569 269.3559 15.08842096 61307,6917.874,95.437,540.562,538.916,0.0
53140.0,STARLINK-4170,PAYLOAD,2023-08-22 10:54:11,15.08839503,0.0001128,53.2177,30.1099,96.5781,263.534,3.6061e-05,2.86e-06,0.0,0 STARLINK-4170,1 53140U 22083J   23234.45430226  .00000286  00000-0  36061-4 0  9994,2 53140  53.2177  30.1099 0001128  96.5781 263.5340 15.08839503 61417,6917.882,95.438,540.527,538.967,0.0
53140.0,STARLINK-4170,PAYLOAD,2023-08-24 12:11:09,15.08835865,0.0001365,53.2171,20.8918,85.1269,274.9879,6.3687e-05,7.26e-06,0.0,0 STARLINK-4170,1 53140U 22083J   23236.50774738  .00000726  00000-0  63687-4 0  9994,2 53140  53.2171  20.8918 0001365  85.1269 274.9879 15.08835865 61729,6917.893,95.438,540.702,538.814,0.0
53140.0,STARLINK-4170,PAYLOAD,2023-08-25 13:37:19,15.08839826,0.0001314,53.2177,16.1337,83.3653,276.7488,4.1767e-05,3.77e-06,0.0,0 STARLINK-4170,1 53140U 22083J   23237.56758743  .00000377  00000-0  41767-4 0  9996,2 53140  53.2177  16.1337 0001314  83.3653 276.7488 15.08839826 61254,6917.881,95.438,540.655,538.837,0.0
53140.0,STARLINK-4170,PAYLOAD,2023-08-25 18:23:28,15.08844751,0.0001304,53.2178,15.2412,85.9801,274.134,7.4153e-05,8.93e-06,0.0,0 STARLINK-4170,1 53140U 22083J   23237.76630303  .00000893  00000-0  74153-4 0  9997,2 53140  53.2178  15.2412 0001304  85.9801 274.1340 15.08844751 61916,6917.866,95.437,540.633,538.829,0.0
53140.0,STARLINK-4170,PAYLOAD,2023-08-26 08:41:57,15.08835696,0.0001253,53.2176,12.566,88.5808,271.5328,7.464e-05,9e-06,0.0,0 STARLINK-4170,1 53140U 22083J   23238.36246919  .00000900  00000-0  74640-4 0  9990,2 53140  53.2176  12.5660 0001253  88.5808 271.5328 15.08835696 62004,6917.894,95.438,540.625,538.892,0.0
53140.0,STARLINK-4170,PAYLOAD,2023-08-26 11:52:43,15.08835906,0.0001244,53.2174,11.9712,95.3937,264.7197,7.8394e-05,9.6e-06,0.0,0 STARLINK-4170,1 53140U 22083J   23238.49494894  .00000960  00000-0  78394-4 0  9997,2 53140  53.2174  11.9712 0001244  95.3937 264.7197 15.08835906 61395,6917.893,95.438,540.618,538.897,0.0
53140.0,STARLINK-4170,PAYLOAD,2023-08-26 16:38:52,15.08842868,0.0001174,53.2177,11.0785,103.4959,256.6164,0.00013448,1.853e-05,0.0,0 STARLINK-4170,1 53140U 22083J   23238.69366289  .00001853  00000-0  13448-3 0  9995,2 53140  53.2177  11.0785 0001174 103.4959 256.6164 15.08842868 62059,6917.872,95.437,540.549,538.924,0.0
53140.0,STARLINK-4170,PAYLOAD,2023-08-27 14:54:16,15.08840427,0.0001208,53.2182,6.9146,92.4181,267.695,8.1538e-05,1.01e-05,0.0,0 STARLINK-4170,1 53140U 22083J   23239.62102830  .00001010  00000-0  81538-4 0  9990,2 53140  53.2182   6.9146 0001208  92.4181 267.6950 15.08840427 62190,6917.879,95.438,540.58,538.908,0.0
53140.0,STARLINK-4170,PAYLOAD,2023-08-28 14:45:03,15.08851595,0.0001159,53.2183,2.454,93.1047,267.0078,7.5175e-05,9.09e-06,0.0,0 STARLINK-4170,1 53140U 22083J   23240.61462088  .00000909  00000-0  75175-4 0  9991,2 53140  53.2183   2.4540 0001159  93.1047 267.0078 15.08851595 62344,6917.845,95.437,540.512,538.908,0.0
53140.0,STARLINK-4170,PAYLOAD,2023-08-29 14:35:50,15.08842397,0.0001242,53.2183,357.9929,88.2456,271.8679,2.5536e-05,1.19e-06,0.0,0 STARLINK-4170,1 53140U 22083J   23241.60822725  .00000119  00000-0  25536-4 0  9998,2 53140  53.2183 357.9929 0001242  88.2456 271.8679 15.08842397 62491,6917.873,95.437,540.597,538.879,0.0
53140.0,STARLINK-4170,PAYLOAD,2023-08-30 14:26:37,15.08849207,0.0001178,53.2181,353.5341,84.6452,275.4674,2.2111e-05,6.4e-07,0.0,0 STARLINK-4170,1 53140U 22083J   23242.60182304  .00000064  00000-0  22111-4 0  9996,2 53140  53.2181 353.5341 0001178  84.6452 275.4674 15.08849207 62013,6917.852,95.437,540.532,538.902,0.0
53140.0,STARLINK-4170,PAYLOAD,2023-08-31 09:31:16,15.08833514,0.0001385,53.2177,349.9658,84.9496,275.1654,-1.4191e-05,-5.14e-06,0.0,0 STARLINK-4170,1 53140U 22083J   23243.39671417 -.00000514  00000-0 -14191-4 0  9992,2 53140  53.2177 349.9658 0001385  84.9496 275.1654 15.08833514 62760,6917.9,95.438,540.723,538.807,0.0
53140.0,STARLINK-4170,PAYLOAD,2023-08-31 23:49:43,15.08835665,9.73e-05,53.2176,347.2901,92.0419,268.0684,0.00019481,2.814e-05,0.0,0 STARLINK-4170,1 53140U 22083J   23243.99286746  .00002814  00000-0  19481-3 0  9994,2 53140  53.2176 347.2901 0000973  92.0419 268.0684 15.08835665 62851,6917.894,95.438,540.432,539.086,0.0
53140.0,STARLINK-4170,PAYLOAD,2023-09-01 09:22:03,15.08790659,0.0001813,53.2169,345.5064,86.5807,273.5393,0.00071785,0.0001114,0.0,0 STARLINK-4170,1 53140U 22083J   23244.39031736  .00011140  00000-0  71785-3 0  9993,2 53140  53.2169 345.5064 0001813  86.5807 273.5393 15.08790659 62915,6918.031,95.441,541.15,538.642,0.0
53140.0,STARLINK-4170,PAYLOAD,2023-09-01 15:43:36,15.08793848,0.0001822,53.2169,344.317,84.5532,275.5668,0.00066322,0.0001027,0.0,0 STARLINK-4170,1 53140U 22083J   23244.65528366  .00010270  00000-0  66322-3 0  9996,2 53140  53.2169 344.3170 0001822  84.5532 275.5668 15.08793848 62328,6918.021,95.44,541.147,538.626,0.0
